NORAD_CAT_ID,OBJECT_NAME,OBJECT_TYPE,EPOCH,MEAN_MOTION,ECCENTRICITY,INCLINATION,RA_OF_ASC_NODE,ARG_OF_PERICENTER,MEAN_ANOMALY,BSTAR,MEAN_MOTION_DOT,MEAN_MOTION_DDOT,TLE_LINE0,TLE_LINE1,TLE_LINE2,SEMIMAJOR_AXIS,PERIOD,APOGEE,PERIGEE,DECAYED
55950.0,STARLINK-5911,PAYLOAD,2023-07-11 13:24:19,15.69920984,0.0003397,69.9981,215.5082,264.3245,95.7563,-1.5173e-06,-3.95e-06,0.0,0 STARLINK-5911,1 55950U 23037AN  23192.55855344 -.00000395  00000-0 -15173-5 0  9996,2 55950  69.9981 215.5082 0003397 264.3245  95.7563 15.69920984 18703,6737.26,91.724,361.414,356.836,0.0
55950.0,STARLINK-5911,PAYLOAD,2023-07-12 07:45:19,15.69927818,0.0003706,69.9963,213.3588,267.2452,92.832,4.2944e-06,3.03e-06,0.0,0 STARLINK-5911,1 55950U 23037AN  23193.32314736  .00000303  00000-0  42944-5 0  9990,2 55950  69.9963 213.3588 0003706 267.2452  92.8320 15.69927818 18821,6737.241,91.724,361.602,356.609,0.0
55950.0,STARLINK-5911,PAYLOAD,2023-07-13 12:48:37,15.69924244,0.0003722,69.9971,209.9555,274.6381,85.439,-1.9025e-06,-4.42e-06,0.0,0 STARLINK-5911,1 55950U 23037AN  23194.53376943 -.00000442  00000-0 -19025-5 0  9992,2 55950  69.9971 209.9555 0003722 274.6381  85.4390 15.69924244 19013,6737.251,91.724,361.623,356.608,0.0
55950.0,STARLINK-5911,PAYLOAD,2023-07-14 10:13:08,15.69927709,0.0003241,69.997,207.4473,269.318,90.7645,1.8683e-05,2.035e-05,0.0,0 STARLINK-5911,1 55950U 23037AN  23195.42579639  .00002035  00000-0  18683-4 0  9994,2 55950  69.9970 207.4473 0003241 269.3180  90.7645 15.69927709 19154,6737.241,91.724,361.289,356.922,0.0
55950.0,STARLINK-5911,PAYLOAD,2023-07-14 17:51:55,15.69918348,0.000326,69.9974,206.552,270.8925,89.1897,2.2688e-06,6e-07,0.0,0 STARLINK-5911,1 55950U 23037AN  23195.74438940  .00000060  00000-0  22688-5 0  9995,2 55950  69.9974 206.5520 0003260 270.8925  89.1897 15.69918348 19202,6737.268,91.725,361.329,356.936,0.0
55950.0,STARLINK-5911,PAYLOAD,2023-07-15 10:41:11,15.6992543,0.0003237,69.9982,204.582,275.5428,84.5399,6.33e-06,5.48e-06,0.0,0 STARLINK-5911,1 55950U 23037AN  23196.44526928  .00000548  00000-0  63300-5 0  9994,2 55950  69.9982 204.5820 0003237 275.5428  84.5399 15.69925430 19314,6737.247,91.724,361.293,356.931,0.0
55950.0,STARLINK-5911,PAYLOAD,2023-07-15 18:19:57,15.69914688,0.0002875,69.9989,203.6868,274.9891,85.0977,7.8459e-07,-1.18e-06,0.0,0 STARLINK-5911,1 55950U 23037AN  23196.76386263 -.00000118  00000-0  78459-6 0  9991,2 55950  69.9989 203.6868 0002875 274.9891  85.0977 15.69914688 19363,6737.278,91.725,361.08,357.206,0.0
55950.0,STARLINK-5911,PAYLOAD,2023-07-16 01:58:43,15.69923725,0.0003277,69.9989,202.7899,257.0812,103.0018,-1.0333e-05,-1.455e-05,0.0,0 STARLINK-5911,1 55950U 23037AN  23197.08244232 -.00001455  00000-0 -10333-4 0  9997,2 55950  69.9989 202.7899 0003277 257.0812 103.0018 15.69923725 19414,6737.252,91.724,361.325,356.909,0.0
55950.0,STARLINK-5911,PAYLOAD,2023-07-16 08:05:42,15.69930857,0.0002801,69.9992,202.074,261.3379,98.7499,2.0058e-06,2.9e-07,0.0,0 STARLINK-5911,1 55950U 23037AN  23197.33730267  .00000029  00000-0  20058-5 0  9993,2 55950  69.9992 202.0740 0002801 261.3379  98.7499 15.69930857 19455,6737.232,91.724,360.984,357.21,0.0
55950.0,STARLINK-5911,PAYLOAD,2023-07-16 17:16:14,15.69916619,0.0003761,69.999,201.0007,266.6197,93.4569,7.1371e-06,6.45e-06,0.0,0 STARLINK-5911,1 55950U 23037AN  23197.71960890  .00000645  00000-0  71371-5 0  9990,2 55950  69.9990 201.0007 0003761 266.6197  93.4569 15.69916619 19517,6737.273,91.725,361.671,356.604,0.0
55950.0,STARLINK-5911,PAYLOAD,2023-07-17 10:05:29,15.69930911,0.0002817,69.9998,199.028,269.5168,90.5705,2.1108e-05,2.327e-05,0.0,0 STARLINK-5911,1 55950U 23037AN  23198.42048274  .00002327  00000-0  21108-4 0  9993,2 55950  69.9998 199.0280 0002817 269.5168  90.5705 15.69930911 19628,6737.232,91.724,360.995,357.199,0.0
55950.0,STARLINK-5911,PAYLOAD,2023-07-17 17:44:15,15.69920525,0.0003709,69.9976,198.1327,266.8778,93.1994,9.739e-06,9.58e-06,0.0,0 STARLINK-5911,1 55950U 23037AN  23198.73907261  .00000958  00000-0  97390-5 0  9992,2 55950  69.9976 198.1327 0003709 266.8778  93.1994 15.69920525 19678,6737.261,91.724,361.625,356.628,0.0
55950.0,STARLINK-5911,PAYLOAD,2023-07-19 01:51:04,15.69918803,0.0003138,69.9984,194.3714,258.3539,101.7304,-2.8984e-06,-5.61e-06,0.0,0 STARLINK-5911,1 55950U 23037AN  23200.07713103 -.00000561  00000-0 -28984-5 0  9998,2 55950  69.9984 194.3714 0003138 258.3539 101.7304 15.69918803 19882,6737.266,91.724,361.245,357.017,0.0
55950.0,STARLINK-5911,PAYLOAD,2023-07-19 11:01:34,15.69923613,0.0003088,69.9992,193.2949,269.8371,90.2471,-7.8305e-06,-1.154e-05,0.0,0 STARLINK-5911,1 55950U 23037AN  23200.45943018 -.00001154  00000-0 -78305-5 0  9991,2 55950  69.9992 193.2949 0003088 269.8371  90.2471 15.69923613 19943,6737.253,91.724,361.198,357.037,0.0
55950.0,STARLINK-5911,PAYLOAD,2023-07-20 11:29:36,15.69924405,0.0003506,69.998,190.43,264.238,95.8416,1.3124e-05,1.365e-05,0.0,0 STARLINK-5911,1 55950U 23037AN  23201.47889183  .00001365  00000-0  13124-4 0  9995,2 55950  69.9980 190.4300 0003506 264.2380  95.8416 15.69924405 20104,6737.25,91.724,361.477,356.753,0.0
55950.0,STARLINK-5911,PAYLOAD,2023-07-21 08:54:08,15.69919322,0.0003615,69.9983,187.9219,265.9295,94.1488,1.2517e-05,1.292e-05,0.0,0 STARLINK-5911,1 55950U 23037AN  23202.37092974  .00001292  00000-0  12517-4 0  9993,2 55950  69.9983 187.9219 0003615 265.9295  94.1488 15.69919322 20249,6737.265,91.724,361.565,356.694,0.0
55950.0,STARLINK-5911,PAYLOAD,2023-07-24 10:18:14,15.69925724,0.0003376,69.9982,179.3225,261.846,98.2353,1.1e-05,1.11e-05,0.0,0 STARLINK-5911,1 55950U 23037AN  23205.42933015  .00001110  00000-0  11000-4 0  9997,2 55950  69.9982 179.3225 0003376 261.8460  98.2353 15.69925724 20387,6737.247,91.724,361.386,356.837,0.0
55950.0,STARLINK-5911,PAYLOAD,2023-07-25 07:42:46,15.69921077,0.0003273,69.9975,176.8158,264.2972,95.785,7.5418e-06,6.94e-06,0.0,0 STARLINK-5911,1 55950U 23037AN  23206.32136899  .00000694  00000-0  75418-5 0  9992,2 55950  69.9975 176.8158 0003273 264.2972  95.7850 15.69921077 20524,6737.26,91.724,361.33,356.92,0.0
55950.0,STARLINK-5911,PAYLOAD,2023-07-26 00:32:01,15.69928108,0.000332,70.0001,174.8466,257.4419,102.6406,2.2851e-05,2.536e-05,0.0,0 STARLINK-5911,1 55950U 23037AN  23207.02224212  .00002536  00000-0  22851-4 0  9996,2 55950  70.0001 174.8466 0003320 257.4419 102.6406 15.69928108 20639,6737.24,91.724,361.341,356.868,0.0
55950.0,STARLINK-5911,PAYLOAD,2023-07-26 06:39:02,15.69922483,0.0003535,69.997,174.1301,258.9266,101.1532,1.2088e-05,1.241e-05,0.0,0 STARLINK-5911,1 55950U 23037AN  23207.27711513  .00001241  00000-0  12088-4 0  9991,2 55950  69.9970 174.1301 0003535 258.9266 101.1532 15.69922483 21013,6737.256,91.724,361.502,356.739,0.0
55950.0,STARLINK-5911,PAYLOAD,2023-07-27 01:00:04,15.69920667,0.0003656,69.9946,171.9759,264.6673,95.4105,1.9112e-06,1.7e-07,0.0,0 STARLINK-5911,1 55950U 23037AN  23208.04172028  .00000017  00000-0  19112-5 0  9995,2 55950  69.9946 171.9759 0003656 264.6673  95.4105 15.69920667 21134,6737.261,91.724,361.589,356.663,0.0
55950.0,STARLINK-5911,PAYLOAD,2023-07-27 10:10:35,15.69918542,0.0003039,69.9979,170.9035,257.3374,102.7482,-8.9496e-07,-3.2e-06,0.0,0 STARLINK-5911,1 55950U 23037AN  23208.42402341 -.00000320  00000-0 -89496-6 0  9993,2 55950  69.9979 170.9035 0003039 257.3374 102.7482 15.69918542 20855,6737.267,91.725,361.18,357.085,0.0
55950.0,STARLINK-5911,PAYLOAD,2023-07-27 14:45:51,15.69917799,0.000292,69.9985,170.3674,259.7118,100.3749,-5.6372e-06,-8.9e-06,0.0,0 STARLINK-5911,1 55950U 23037AN  23208.61517585 -.00000890  00000-0 -56372-5 0  9999,2 55950  69.9985 170.3674 0002920 259.7118 100.3749 15.69917799 20881,6737.269,91.725,361.101,357.167,0.0
55950.0,STARLINK-5911,PAYLOAD,2023-07-27 23:56:20,15.69935274,0.0003375,69.9992,169.2933,259.5192,100.5624,6.0485e-06,5.15e-06,0.0,0 STARLINK-5911,1 55950U 23037AN  23208.99746236  .00000515  00000-0  60485-5 0  9999,2 55950  69.9992 169.2933 0003375 259.5192 100.5624 15.69935274 21286,6737.219,91.724,361.358,356.81,0.0
55950.0,STARLINK-5911,PAYLOAD,2023-07-28 06:03:21,15.69933063,0.0003776,69.9989,168.5765,266.8802,93.1962,2.0729e-06,3.6e-07,0.0,0 STARLINK-5911,1 55950U 23037AN  23209.25232928  .00000036  00000-0  20729-5 0  9992,2 55950  69.9989 168.5765 0003776 266.8802  93.1962 15.69933063 20983,6737.226,91.724,361.634,356.547,0.0
55950.0,STARLINK-5911,PAYLOAD,2023-07-29 03:27:52,15.6992838,0.0003011,69.9971,166.0656,256.6118,103.4742,2.4739e-05,2.763e-05,0.0,0 STARLINK-5911,1 55950U 23037AN  23210.14436282  .00002763  00000-0  24739-4 0  9994,2 55950  69.9971 166.0656 0003011 256.6118 103.4742 15.69928380 21466,6737.239,91.724,361.132,357.075,0.0
55950.0,STARLINK-5911,PAYLOAD,2023-07-29 14:10:09,15.69919217,0.0003161,69.997,164.8145,264.9643,95.1192,1.0916e-05,1.1e-05,0.0,0 STARLINK-5911,1 55950U 23037AN  23210.59038966  .00001100  00000-0  10916-4 0  9996,2 55950  69.9970 164.8145 0003161 264.9643  95.1192 15.69919217 21538,6737.265,91.724,361.26,357.0,0.0
55950.0,STARLINK-5911,PAYLOAD,2023-07-31 02:52:12,15.69923043,0.0003342,69.998,160.5147,260.5609,99.5209,-1.3143e-05,-1.793e-05,0.0,0 STARLINK-5911,1 55950U 23037AN  23212.11959300 -.00001793  00000-0 -13143-4 0  9995,2 55950  69.9980 160.5147 0003342 260.5609  99.5209 15.69923043 21774,6737.254,91.724,361.371,356.868,0.0
55950.0,STARLINK-5911,PAYLOAD,2023-07-31 05:55:44,15.69906617,0.00027,69.9993,160.1575,259.398,100.6912,-2.2404e-05,-2.903e-05,0.0,0 STARLINK-5911,1 55950U 23037AN  23212.24703937 -.00002903  00000-0 -22404-4 0  9996,2 55950  69.9993 160.1575 0002700 259.3980 100.6912 15.69906617 21799,6737.301,91.725,360.985,357.347,0.0
55950.0,STARLINK-5911,PAYLOAD,2023-07-31 13:34:29,15.69915462,0.0002957,69.9988,159.2617,260.9619,99.1242,2.2145e-07,-1.86e-06,0.0,0 STARLINK-5911,1 55950U 23037AN  23212.56561396 -.00000186  00000-0  22145-6 0  9996,2 55950  69.9988 159.2617 0002957 260.9619  99.1242 15.69915462 21842,6737.276,91.725,361.133,357.149,0.0
